YAM-7                   
1 60504U 24149AN  26068.71799904  .00009009  00000+0  30984-3 0  9997
2 60504  97.3828 149.4631 0001973 296.5121  63.5918 15.30304554 86835
STARLINK-32804          
1 62846U 25019T   26068.44852348  .00022901  00000+0  83861-3 0  9995
2 62846  43.0083  90.3825 0002822 284.4195  75.6344 15.27599780 62213
